[{"OBJECT_NAME":"STARLINK-4715","OBJECT_ID":"2022-111AE","EPOCH":"2026-03-09T20:19:13.100160","MEAN_MOTION":15.08838323,"ECCENTRICITY":0.00013678,"INCLINATION":53.217,"RA_OF_ASC_NODE":263.1661,"ARG_OF_PERICENTER":93.2402,"MEAN_ANOMALY":266.8747,"EPHEMERIS_TYPE":0,"CLASSIFICATION_TYPE":"U","NORAD_CAT_ID":53801,"ELEMENT_SET_NO":999,"REV_AT_EPOCH":19384,"BSTAR":8.302481e-6,"MEAN_MOTION_DOT":-1.56e-6,"MEAN_MOTION_DDOT":0},{"OBJECT_NAME":"SL-24 PLAT","OBJECT_ID":"2014-033AR","EPOCH":"2026-03-09T22:47:27.152448","MEAN_MOTION":15.0919716,"ECCENTRICITY":0.00052059,"INCLINATION":98.0981,"RA_OF_ASC_NODE":61.9435,"ARG_OF_PERICENTER":212.2329,"MEAN_ANOMALY":147.8581,"EPHEMERIS_TYPE":0,"CLASSIFICATION_TYPE":"U","NORAD_CAT_ID":40049,"ELEMENT_SET_NO":999,"REV_AT_EPOCH":63724,"BSTAR":0.00046923352,"MEAN_MOTION_DOT":7.393e-5,"MEAN_MOTION_DDOT":0}]
